{
  "type": "FeatureCollection",
  "features": [
    {
      "type": "Feature",
      "properties": {
        "norad_id": 37238,
        "name": "INTELSAT 17 (IS-17)",
        "group": "intelsat",
        "lat": 0.015172046745469675,
        "lon": 51.330195950099366,
        "alt_km": 35793.626089978694,
        "timestamp": "2025-12-22T16:55:17.118064+00:00",
        "meta_object_name": "INTELSAT 17 (IS-17)",
        "meta_object_id": "2010-065B",
        "meta_epoch": "2025-12-22T03:11:51.515232",
        "meta_mean_motion": 1.00271529,
        "meta_eccentricity": 0.00026128,
        "meta_inclination": 0.0102,
        "meta_ra_of_asc_node": 292.0266,
        "meta_arg_of_pericenter": 346.6867,
        "meta_mean_anomaly": 286.182,
        "meta_ephemeris_type": 0,
        "meta_classification_type": "U",
        "meta_norad_cat_id": 37238,
        "meta_element_set_no": 999,
        "meta_rev_at_epoch": 5147,
        "meta_bstar": 0,
        "meta_mean_motion_dot": 2.1e-07,
        "meta_mean_motion_ddot": 0,
        "tle_line1": "1 37238U 10065B   25356.13323513  .00000021  00000+0  00000+0 0  9998",
        "tle_line2": "2 37238   0.0102 292.0266 0002612 346.6867 286.1820  1.00271529 51477"
      },
      "geometry": {
        "type": "Point",
        "coordinates": [
          51.330195950099366,
          0.015172046745469675
        ]
      }
    },
    {
      "type": "Feature",
      "properties": {
        "norad_id": 37392,
        "name": "INTELSAT 28 (IS-28)",
        "group": "intelsat",
        "lat": -1.033797617747835,
        "lon": -46.3711140901435,
        "alt_km": 35774.677198315454,
        "timestamp": "2025-12-22T16:55:17.118076+00:00",
        "meta_object_name": "INTELSAT 28 (IS-28)",
        "meta_object_id": "2011-016A",
        "meta_epoch": "2025-12-22T06:09:55.840320",
        "meta_mean_motion": 1.00269268,
        "meta_eccentricity": 0.00037309,
        "meta_inclination": 1.3477,
        "meta_ra_of_asc_node": 84.9539,
        "meta_arg_of_pericenter": 189.6681,
        "meta_mean_anomaly": 237.2165,
        "meta_ephemeris_type": 0,
        "meta_classification_type": "U",
        "meta_norad_cat_id": 37392,
        "meta_element_set_no": 999,
        "meta_rev_at_epoch": 5151,
        "meta_bstar": 0,
        "meta_mean_motion_dot": -2.04e-06,
        "meta_mean_motion_ddot": 0,
        "tle_line1": "1 37392U 11016A   25356.25689630 -.00000204  00000+0  00000+0 0  9998",
        "tle_line2": "2 37392   1.3477  84.9539 0003730 189.6681 237.2165  1.00269268 51510"
      },
      "geometry": {
        "type": "Point",
        "coordinates": [
          -46.3711140901435,
          -1.033797617747835
        ]
      }
    },
    {
      "type": "Feature",
      "properties": {
        "norad_id": 37834,
        "name": "INTELSAT 18 (IS-18)",
        "group": "intelsat",
        "lat": -0.013444857118560999,
        "lon": 165.3002863134079,
        "alt_km": 35789.931037824914,
        "timestamp": "2025-12-22T16:55:17.118088+00:00",
        "meta_object_name": "INTELSAT 18 (IS-18)",
        "meta_object_id": "2011-056A",
        "meta_epoch": "2025-12-22T05:12:38.633184",
        "meta_mean_motion": 1.00271277,
        "meta_eccentricity": 0.00016984,
        "meta_inclination": 0.0291,
        "meta_ra_of_asc_node": 282.7933,
        "meta_arg_of_pericenter": 3.9825,
        "meta_mean_anomaly": 62.4078,
        "meta_ephemeris_type": 0,
        "meta_classification_type": "U",
        "meta_norad_cat_id": 37834,
        "meta_element_set_no": 999,
        "meta_rev_at_epoch": 5203,
        "meta_bstar": 0,
        "meta_mean_motion_dot": 7.5e-07,
        "meta_mean_motion_ddot": 0,
        "tle_line1": "1 37834U 11056A   25356.21711381  .00000075  00000+0  00000+0 0  9993",
        "tle_line2": "2 37834   0.0291 282.7933 0001698   3.9825  62.4078  1.00271277 52038"
      },
      "geometry": {
        "type": "Point",
        "coordinates": [
          165.3002863134079,
          -0.013444857118560999
        ]
      }
    },
    {
      "type": "Feature",
      "properties": {
        "norad_id": 38098,
        "name": "INTELSAT 22 (IS-22)",
        "group": "intelsat",
        "lat": 0.026832846029757395,
        "lon": 57.42179491886721,
        "alt_km": 35791.25433210442,
        "timestamp": "2025-12-22T16:55:17.118100+00:00",
        "meta_object_name": "INTELSAT 22 (IS-22)",
        "meta_object_id": "2012-011A",
        "meta_epoch": "2025-12-22T04:31:38.775072",
        "meta_mean_motion": 1.00270454,
        "meta_eccentricity": 0.0001904,
        "meta_inclination": 0.0244,
        "meta_ra_of_asc_node": 32.5601,
        "meta_arg_of_pericenter": 258.3925,
        "meta_mean_anomaly": 300.0424,
        "meta_ephemeris_type": 0,
        "meta_classification_type": "U",
        "meta_norad_cat_id": 38098,
        "meta_element_set_no": 999,
        "meta_rev_at_epoch": 541,
        "meta_bstar": 0,
        "meta_mean_motion_dot": 0,
        "meta_mean_motion_ddot": 0,
        "tle_line1": "1 38098U 12011A   25356.18864323  .00000000  00000+0  00000+0 0  9997",
        "tle_line2": "2 38098   0.0244  32.5601 0001904 258.3925 300.0424  1.00270454  5411"
      },
      "geometry": {
        "type": "Point",
        "coordinates": [
          57.42179491886721,
          0.026832846029757395
        ]
      }
    },
    {
      "type": "Feature",
      "properties": {
        "norad_id": 38356,
        "name": "INTELSAT 19 (IS-19)",
        "group": "intelsat",
        "lat": 0.0022837556692271357,
        "lon": 151.2920450105053,
        "alt_km": 35791.245441181156,
        "timestamp": "2025-12-22T16:55:17.118113+00:00",
        "meta_object_name": "INTELSAT 19 (IS-19)",
        "meta_object_id": "2012-030A",
        "meta_epoch": "2025-12-22T05:23:45.261888",
        "meta_mean_motion": 1.00272077,
        "meta_eccentricity": 0.00028225,
        "meta_inclination": 0.0192,
        "meta_ra_of_asc_node": 312.1721,
        "meta_arg_of_pericenter": 315.1172,
        "meta_mean_anomaly": 70.6825,
        "meta_ephemeris_type": 0,
        "meta_classification_type": "U",
        "meta_norad_cat_id": 38356,
        "meta_element_set_no": 999,
        "meta_rev_at_epoch": 4867,
        "meta_bstar": 0,
        "meta_mean_motion_dot": -3.4e-07,
        "meta_mean_motion_ddot": 0,
        "tle_line1": "1 38356U 12030A   25356.22482942 -.00000034  00000+0  00000+0 0  9991",
        "tle_line2": "2 38356   0.0192 312.1721 0002822 315.1172  70.6825  1.00272077 48679"
      },
      "geometry": {
        "type": "Point",
        "coordinates": [
          151.2920450105053,
          0.0022837556692271357
        ]
      }
    },
    {
      "type": "Feature",
      "properties": {
        "norad_id": 38740,
        "name": "INTELSAT 20 (IS-20)",
        "group": "intelsat",
        "lat": 0.011395741524278552,
        "lon": 53.77545856050378,
        "alt_km": 35795.2689069981,
        "timestamp": "2025-12-22T16:55:17.118125+00:00",
        "meta_object_name": "INTELSAT 20 (IS-20)",
        "meta_object_id": "2012-043A",
        "meta_epoch": "2025-12-22T04:31:38.775072",
        "meta_mean_motion": 1.00271399,
        "meta_eccentricity": 0.00034618,
        "meta_inclination": 0.0093,
        "meta_ra_of_asc_node": 51.5157,
        "meta_arg_of_pericenter": 131.0499,
        "meta_mean_anomaly": 44.8296,
        "meta_ephemeris_type": 0,
        "meta_classification_type": "U",
        "meta_norad_cat_id": 38740,
        "meta_element_set_no": 999,
        "meta_rev_at_epoch": 4897,
        "meta_bstar": 0,
        "meta_mean_motion_dot": -2e-08,
        "meta_mean_motion_ddot": 0,
        "tle_line1": "1 38740U 12043A   25356.18864323 -.00000002  00000+0  00000+0 0  9999",
        "tle_line2": "2 38740   0.0093  51.5157 0003461 131.0499  44.8296  1.00271399 48974"
      },
      "geometry": {
        "type": "Point",
        "coordinates": [
          53.77545856050378,
          0.011395741524278552
        ]
      }
    },
    {
      "type": "Feature",
      "properties": {
        "norad_id": 38749,
        "name": "INTELSAT 21 (IS-21)",
        "group": "intelsat",
        "lat": -0.018558868281154984,
        "lon": -72.67171509978954,
        "alt_km": 35780.20418265012,
        "timestamp": "2025-12-22T16:55:17.118137+00:00",
        "meta_object_name": "INTELSAT 21 (IS-21)",
        "meta_object_id": "2012-045A",
        "meta_epoch": "2025-12-22T05:24:38.582784",
        "meta_mean_motion": 1.00271513,
        "meta_eccentricity": 0.00015339,
        "meta_inclination": 0.0209,
        "meta_ra_of_asc_node": 295.0895,
        "meta_arg_of_pericenter": 329.906,
        "meta_mean_anomaly": 209.2006,
        "meta_ephemeris_type": 0,
        "meta_classification_type": "U",
        "meta_norad_cat_id": 38749,
        "meta_element_set_no": 999,
        "meta_rev_at_epoch": 4875,
        "meta_bstar": 0,
        "meta_mean_motion_dot": -2.63e-06,
        "meta_mean_motion_ddot": 0,
        "tle_line1": "1 38749U 12045A   25356.22544656 -.00000263  00000+0  00000+0 0  9998",
        "tle_line2": "2 38749   0.0209 295.0895 0001533 329.9060 209.2006  1.00271513 48756"
      },
      "geometry": {
        "type": "Point",
        "coordinates": [
          -72.67171509978954,
          -0.018558868281154984
        ]
      }
    }
  ]
}